[{"OBJECT_NAME":"TIANYI D","OBJECT_ID":"2025-103D","EPOCH":"2026-03-09T23:34:58.761120","MEAN_MOTION":15.17585696,"ECCENTRICITY":0.00029978,"INCLINATION":97.3899,"RA_OF_ASC_NODE":142.5822,"ARG_OF_PERICENTER":153.0168,"MEAN_ANOMALY":207.1222,"EPHEMERIS_TYPE":0,"CLASSIFICATION_TYPE":"U","NORAD_CAT_ID":64051,"ELEMENT_SET_NO":999,"REV_AT_EPOCH":4495,"BSTAR":0.00030791157,"MEAN_MOTION_DOT":6.122e-5,"MEAN_MOTION_DDOT":0},{"OBJECT_NAME":"IRIDIUM 33 DEB","OBJECT_ID":"1997-051QU","EPOCH":"2026-03-08T21:05:50.889408","MEAN_MOTION":15.14163842,"ECCENTRICITY":0.00066898,"INCLINATION":86.1938,"RA_OF_ASC_NODE":220.7787,"ARG_OF_PERICENTER":301.9958,"MEAN_ANOMALY":209.7336,"EPHEMERIS_TYPE":0,"CLASSIFICATION_TYPE":"U","NORAD_CAT_ID":35622,"ELEMENT_SET_NO":999,"REV_AT_EPOCH":88659,"BSTAR":0.0030521317,"MEAN_MOTION_DOT":0.00056043,"MEAN_MOTION_DDOT":0}]
